OPTUS D3                
1 35756U 09044B   16312.20749081 -.00000147  00000-0  00000+0 0  9999
2 35756   0.0527  49.5240 0002735 189.8220  38.2118  1.00271074 26444
PALAPA D                
1 35812U 09046A   16310.56054647 -.00000357  00000-0  00000+0 0  9991
2 35812   0.0361  72.3297 0002031 183.4900 104.1960  1.00271955 26472
NIMIQ 5                 
1 35873U 09050A   16312.35492376 -.00000257  00000-0  00000+0 0  9996
2 35873   0.0063 136.2019 0002374  87.7439 238.1434  1.00272683 26173
AMAZONAS 2              
1 35942U 09054A   16312.18224321 -.00000282  00000-0  00000+0 0  9999
2 35942   0.0535 105.4096 0004005  74.5414 231.5141  1.00274257 26000
COMSATBW-1              
1 35943U 09054B   16312.13204794  .00000025  00000-0  00000+0 0  9991
2 35943   0.0093  98.6701 0002958 136.3827 282.2878  1.00270266 26079
NSS-12                  
1 36032U 09058A   16311.71289902  .00000072  00000-0  00000+0 0  9994
2 36032   0.0636  77.0168 0002636 152.7117 130.2867  1.00272502 25756
THOR 6                  
1 36033U 09058B   16311.25737522 -.00000009  00000-0  00000+0 0  9991
2 36033   0.0427  99.2237 0001816 139.9335 258.5776  1.00272246 25765
INTELSAT 14 (IS-14)     
1 36097U 09064A   16311.99539698 -.00000273  00000-0  00000+0 0  9996
2 36097   0.0153 284.9402 0002609 302.7355 132.3405  1.00271114 25526
EUTELSAT 36B            
1 36101U 09065A   16311.79456105  .00000156  00000-0  00000+0 0  9991
2 36101   0.0684 356.6958 0004481 235.1473 136.5681  1.00270309 25622
INTELSAT 15 (IS-15)     
1 36106U 09067A   16311.05740641 -.00000185  00000-0  00000+0 0  9991
2 36106   0.0098 299.2635 0002200 286.9444 285.3446  1.00272292 25400
DIRECTV 12              
1 36131U 09075A   16312.47941623 -.00000103  00000-0  00000+0 0  9998
2 36131   0.0173 207.3040 0000283 335.3452 294.2729  1.00271991 25205
BEIDOU G1               
1 36287U 10001A   16312.49176267 -.00000282  00000-0  10000-3 0  9990
2 36287   1.5302   6.4453 0005546 217.8275 139.8772  1.00277378 24988
RADUGA-1M 2             
1 36358U 10002A   16312.06440120 -.00000183  00000-0  00000+0 0  9990
2 36358   0.0197 270.5733 0003361 351.4851 252.8570  1.00270065 24827
SDO                     
1 36395U 10005A   16312.09632638 -.00000034  00000-0  00000+0 0  9999
2 36395  28.5284 144.4297 0001668 134.4905  60.8834  1.00273309 24847
INTELSAT 16 (IS-16)     
1 36397U 10006A   16309.36975064 -.00000284  00000-0  00000+0 0  9998
2 36397   0.0149 285.2135 0001427 296.8294 257.0408  1.00267831 24521
GOES 15                 
1 36411U 10008A   16311.24743660  .00000089  00000-0  00000+0 0  9994
2 36411   0.2463 270.3508 0002519 269.9902 179.6974  1.00262748 24493
ECHOSTAR 14             
1 36499U 10010A   16311.38048845  .00000001  00000-0  00000+0 0  9995
2 36499   0.0105 263.4416 0002924 321.9011 198.7922  1.00271394 24347
SES-1                   
1 36516U 10016A   16312.53604132 -.00000115  00000-0  00000+0 0  9993
2 36516   0.0200 357.0441 0002063 213.4739 288.6451  1.00273715 23958
ASTRA 3B                
1 36581U 10021A   16311.10036397  .00000138  00000-0  00000+0 0  9999
2 36581   0.0635 309.3120 0003358 282.2608 233.8171  1.00272764 23452
COMSATBW-2              
1 36582U 10021B   16312.13727873  .00000089  00000-0  00000+0 0  9995
2 36582   0.0186 276.7403 0002527 332.0738 220.6276  1.00274851 23808
BEIDOU G3               
1 36590U 10024A   16312.00353352 -.00000354  00000-0  00000+0 0  9996
2 36590   1.3861  26.6956 0005805 296.7334 195.0633  1.00269281 23595
BADR-5                  
1 36592U 10025A   16311.10041734  .00000146  00000-0  00000+0 0  9995
2 36592   0.0095 205.1513 0004496 355.3226 267.4371  1.00272872 23708
COMS 1                  
1 36744U 10032A   16311.87339763 -.00000343  00000-0  00000+0 0  9998
2 36744   0.0476  96.7168 0000601 113.3606 279.0866  1.00272898 23467
ARABSAT-5A              
1 36745U 10032B   16311.10052404  .00000154  00000-0  00000+0 0  9998
2 36745   0.0560 355.7872 0003159 219.8794 256.7880  1.00269744 23434
ECHOSTAR 15             
1 36792U 10034A   16312.18010935 -.00000282  00000-0  00000+0 0  9997
2 36792   0.0512  78.3723 0002238 150.8545 180.8189  1.00272595 23214
NILESAT 201             
1 36830U 10037A   16311.32163348 -.00000057  00000-0  00000+0 0  9995
2 36830   0.0533 148.3366 0003928  65.3493 301.0863  1.00272792 23091
RASCOM-QAF 1R           
1 36831U 10037B   16311.86266235  .00000019  00000-0  00000+0 0  9991
2 36831   0.0153 328.4632 0006373 271.3590 120.1527  1.00271440 23109
CHINASAT 6A (ZX 6A)     
1 37150U 10042A   16311.49094170 -.00000353  00000-0  00000+0 0  9990
2 37150   0.0573  99.7564 0000504 333.8762 274.3149  1.00272599 22700
QZS-1 (MICHIBIKI)       
1 37158U 10045A   16310.61360716 -.00000101  00000-0  00000+0 0  9997
2 37158  40.7473 162.5794 0744567 269.8711 331.0651  1.00287215 22517
XM-5                    
1 37185U 10053A   16312.36299354 -.00000205  00000-0  00000+0 0  9994
2 37185   0.0153 280.7679 0000510 175.8775 355.8536  1.00271300 22261
BSAT-3B                 
1 37207U 10056B   16310.97665308 -.00000350  00000-0  00000+0 0  9994
2 37207   0.0467 328.8220 0003687 304.5979 233.7004  1.00274155 22079
BEIDOU G4               
1 37210U 10057A   16312.22717811 -.00000110  00000-0  00000+0 0  9990
2 37210   0.9992  53.9764 0009478 177.2041  57.5818  1.00272772 22093
SKYTERRA 1              
1 37218U 10061A   16311.06536563 -.00000120  00000-0  00000+0 0  9998
2 37218   3.5025 328.2099 0005422 206.6629 153.0880  1.00272246 22031
ZHONGXING-20A           
1 37234U 10064A   16312.54474285 -.00000336  00000-0  00000+0 0  9994
2 37234   0.0859 100.4522 0004007 170.5433 102.3896  1.00272127 21858
HYLAS 1                 
1 37237U 10065A   16310.31751309 -.00000232  00000-0  00000+0 0  9991
2 37237   0.0622  69.7250 0001429 191.3237 224.7612  1.00270886 21802
INTELSAT 17 (IS-17)     
1 37238U 10065B   16311.90605053 -.00000001  00000-0  00000+0 0  9996
2 37238   0.0247 134.2112 0002597  86.6456 217.8620  1.00270183 21731
EUTELSAT KA-SAT 9A      
1 37258U 10069A   16310.84869825  .00000063  00000-0  00000+0 0  9990
2 37258   0.0555 286.0794 0002504 305.6295 128.3069  1.00274034 21620
HISPASAT 1E             
1 37264U 10070A   16312.33718661 -.00000216  00000-0  00000+0 0  9997
2 37264   0.0623 100.0327 0004455 102.2132 296.1576  1.00270685 21487
KOREASAT 6              
1 37265U 10070B   16311.93116272 -.00000362  00000-0  00000+0 0  9995
2 37265   0.0061 330.9055 0001465 235.8524 291.0629  1.00272550 21499
ELEKTRO-L 1 (GOMS 2)    
1 37344U 11001A   16312.49711394 -.00000134  00000-0  00000+0 0  9993
2 37344   1.9846  78.6812 0002584 259.6294 231.1000  1.00252341 21287
BEIDOU IGSO 3           
1 37384U 11013A   16312.07844200 -.00000151  00000-0  10000-3 0  9991
2 37384  57.5504  75.2650 0026308 202.6480 277.7908  1.00270090 20493
INTELSAT NEW DAWN       
1 37392U 11016A   16312.02757950  .00000156  00000-0  00000+0 0  9992
2 37392   0.0116 234.7926 0001062  15.6202 199.0396  1.00276651 20324
YAHSAT 1A               
1 37393U 11016B   16312.13797824  .00000101  00000-0  00000+0 0  9999
2 37393   0.0124 270.0504 0002093 340.2284 258.6991  1.00272535 20376
TELSTAR 14R             
1 37602U 11021A   16312.23506582 -.00000280  00000-0  00000+0 0  9997
2 37602   0.0508  82.1944 0002207 197.1534 149.1773  1.00270442 20602
GSAT-8                  
1 37605U 11022A   16312.13348524  .00000084  00000-0  00000+0 0  9991
2 37605   0.0445 265.0291 0007957 344.8905 260.0210  1.00274325 20054
ST-2                    
1 37606U 11022B   16311.89981641 -.00000211  00000-0  00000+0 0  9990
2 37606   0.0110  90.9238 0001626 141.9494 225.6317  1.00270666 20055
CHINASAT 10 (ZX 10)     
1 37677U 11026A   16312.00353352 -.00000352  00000-0  00000+0 0  9994
2 37677   0.0011 282.0225 0004857 330.7536 265.6936  1.00271824 19783
TIANLIAN 1-02           
1 37737U 11032A   16312.53362194  .00000031  00000-0  00000+0 0  9993
2 37737   2.1371  78.4023 0008545 160.2802 177.3480  1.00273445 19532
GSAT-12                 
1 37746U 11034A   16311.85186366 -.00000165  00000-0  00000+0 0  9993
2 37746   0.0169 134.7209 0004397 355.7947 305.6977  1.00273071 19765
SES-3                   
1 37748U 11035A   16312.21031051 -.00000102  00000-0  00000+0 0  9998
2 37748   0.0381  78.3902 0002499 154.1605 147.0363  1.00271943 19515
KAZSAT-2                
1 37749U 11035B   16311.88208727 -.00000197  00000-0  00000+0 0  9991
2 37749   0.0207 286.3611 0002161 359.1754 165.0472  1.00269619 19382
ASTRA 1N                
1 37775U 11041A   16311.63088471  .00000121  00000-0  00000+0 0  9998
2 37775   0.0560  18.5190 0000398 165.7924 108.3082  1.00273851 19201
BSAT-3C (JCSAT-110R)    
1 37776U 11041B   16311.87886627 -.00000350  00000-0  00000+0 0  9999
2 37776   0.0019 124.8131 0000304 185.9501 162.1580  1.00272840 19331
PAKSAT-1R               
1 37779U 11042A   16311.74635324  .00000154  00000-0  00000+0 0  9996
2 37779   0.0680  75.6566 0001793 162.7088 114.7353  1.00274604 19082
CHINASAT 1A (ZX 1A)     
1 37804U 11047A   16311.87354949 -.00000337  00000-0  00000+0 0  9999
2 37804   0.0110 278.2828 0001576  16.4492 196.1301  1.00272220 18891
COSMOS 2473             
1 37806U 11048A   16310.91083169 -.00000106  00000-0  00000+0 0  9993
2 37806   0.0522 104.3602 0003013 174.9906  80.6535  1.00271914 18869
SES-2                   
1 37809U 11049A   16312.13952494 -.00000196  00000-0  00000+0 0  9998
2 37809   0.0355  72.8521 0002404 131.5284 165.6427  1.00271215 18831
ARABSAT-5C              
1 37810U 11049B   16311.65187644  .00000124  00000-0  00000+0 0  9993
2 37810   0.0676  18.6448 0002818 206.7906  75.5550  1.00273921 18719
EUTELSAT 7 WEST A       
1 37816U 11051A   16311.89094847 -.00000059  00000-0  00000+0 0  9998
2 37816   0.0773  42.7289 0005326 182.5982 134.6675  1.00272101 18787
